CTC1_L_00252001-01
1 42936U 23967WK  26037.47803241  .00000000  00000+0  00000-0 0  9997
2 42936  85.0000   0.0000 0000000   0.0000   0.0000 15.48880291    16
CTC1_L_00252001-02
1 42937U 22139MK  26037.47803241  .00000000  00000+0  00000-0 0  9998
2 42937  85.0000   0.0000 0000000   0.0000  90.0000 15.48880291    16
CTC1_L_00252001-03
1 42938U 26892ZZ  26037.47803241  .00000000  00000+0  00000-0 0  9999
2 42938  85.0000   0.0000 0000000   0.0000 180.0000 15.48880291    17
CTC1_L_00252001-04
1 42939U 25716NO  26037.47803241  .00000000  00000+0  00000-0 0  9994
2 42939  85.0000   0.0000 0000000   0.0000 270.0000 15.48880291    18
CTC1_L_00252002-01
1 42940U 25012BB  26037.47803241  .00000000  00000+0  00000-0 0  9995
2 42940  85.0000  12.0000 0000000   0.0000  12.0000 15.48880291    17
CTC1_L_00252002-02
1 42941U 22782PF  26037.47803241  .00000000  00000+0  00000-0 0  9997
2 42941  85.0000  12.0000 0000000   0.0000 102.0000 15.48880291    18
CTC1_L_00252002-03
1 42942U 24865MJ  26037.47803241  .00000000  00000+0  00000-0 0  9992
2 42942  85.0000  12.0000 0000000   0.0000 192.0000 15.48880291    18
CTC1_L_00252002-04
1 42943U 26257QX  26037.47803241  .00000000  00000+0  00000-0 0  9990
2 42943  85.0000  12.0000 0000000   0.0000 282.0000 15.48880291    19
CTC1_L_00252003-01
1 42944U 26395VY  26037.47803241  .00000000  00000+0  00000-0 0  9994
2 42944  85.0000  24.0000 0000000   0.0000  24.0000 15.48880291    17
CTC1_L_00252003-02
1 42945U 22279JA  26037.47803241  .00000000  00000+0  00000-0 0  9992
2 42945  85.0000  24.0000 0000000   0.0000 114.0000 15.48880291    18
CTC1_L_00252003-03
1 42946U 25639BI  26037.47803241  .00000000  00000+0  00000-0 0  9996
2 42946  85.0000  24.0000 0000000   0.0000 204.0000 15.48880291    19
CTC1_L_00252003-04
1 42947U 22303HM  26037.47803241  .00000000  00000+0  00000-0 0  9992
2 42947  85.0000  24.0000 0000000   0.0000 294.0000 15.48880291    19
CTC1_L_00252004-01
1 42948U 23412BU  26037.47803241  .00000000  00000+0  00000-0 0  9995
2 42948  85.0000  36.0000 0000000   0.0000  36.0000 15.48880291    17
CTC1_L_00252004-02
1 42949U 23675JK  26037.47803241  .00000000  00000+0  00000-0 0  9997
2 42949  85.0000  36.0000 0000000   0.0000 126.0000 15.48880291    18
CTC1_L_00252004-03
1 42950U 23838O   26037.47803241  .00000000  00000+0  00000-0 0  9990
2 42950  85.0000  36.0000 0000000   0.0000 216.0000 15.48880291    10
CTC1_L_00252004-04
1 42951U 26036XN  26037.47803241  .00000000  00000+0  00000-0 0  9994
2 42951  85.0000  36.0000 0000000   0.0000 306.0000 15.48880291    11
CTC1_L_00252005-01
1 42952U 22456BS  26037.47803241  .00000000  00000+0  00000-0 0  9997
2 42952  85.0000  48.0000 0000000   0.0000  48.0000 15.48880291    18
CTC1_L_00252005-02
1 42953U 23260QJ  26037.47803241  .00000000  00000+0  00000-0 0  9992
2 42953  85.0000  48.0000 0000000   0.0000 138.0000 15.48880291    19
CTC1_L_00252005-03
1 42954U 23689LJ  26037.47803241  .00000000  00000+0  00000-0 0  9998
2 42954  85.0000  48.0000 0000000   0.0000 228.0000 15.48880291    10
CTC1_L_00252005-04
1 42955U 23998ZG  26037.47803241  .00000000  00000+0  00000-0 0  9992
2 42955  85.0000  48.0000 0000000   0.0000 318.0000 15.48880291    11
CTC1_L_00252006-01
1 42956U 24747RB  26037.47803241  .00000000  00000+0  00000-0 0  9996
2 42956  85.0000  60.0000 0000000   0.0000  60.0000 15.48880291    10
CTC1_L_00252006-02
1 42957U 26511KO  26037.47803241  .00000000  00000+0  00000-0 0  9998
2 42957  85.0000  60.0000 0000000   0.0000 150.0000 15.48880291    11
CTC1_L_00252006-03
1 42958U 25646SJ  26037.47803241  .00000000  00000+0  00000-0 0  9997
2 42958  85.0000  60.0000 0000000   0.0000 240.0000 15.48880291    12
CTC1_L_00252006-04
1 42959U 22371OM  26037.47803241  .00000000  00000+0  00000-0 0  9990
2 42959  85.0000  60.0000 0000000   0.0000 330.0000 15.48880291    13
CTC1_L_00252007-01
1 42960U 22222WA  26037.47803241  .00000000  00000+0  00000-0 0  9997
2 42960  85.0000  72.0000 0000000   0.0000  72.0000 15.48880291    11
CTC1_L_00252007-02
1 42961U 24073EK  26037.47803241  .00000000  00000+0  00000-0 0  9994
2 42961  85.0000  72.0000 0000000   0.0000 162.0000 15.48880291    12
CTC1_L_00252007-03
1 42962U 23172LN  26037.47803241  .00000000  00000+0  00000-0 0  9994
2 42962  85.0000  72.0000 0000000   0.0000 252.0000 15.48880291    13
CTC1_L_00252007-04
1 42963U 25634PH  26037.47803241  .00000000  00000+0  00000-0 0  9990
2 42963  85.0000  72.0000 0000000   0.0000 342.0000 15.48880291    14
CTC1_L_00252008-01
1 42964U 26418XY  26037.47803241  .00000000  00000+0  00000-0 0  9992
2 42964  85.0000  84.0000 0000000   0.0000  84.0000 15.48880291    11
CTC1_L_00252008-02
1 42965U 25747GS  26037.47803241  .00000000  00000+0  00000-0 0  9997
2 42965  85.0000  84.0000 0000000   0.0000 174.0000 15.48880291    12
CTC1_L_00252008-03
1 42966U 23360KG  26037.47803241  .00000000  00000+0  00000-0 0  9997
2 42966  85.0000  84.0000 0000000   0.0000 264.0000 15.48880291    13
CTC1_L_00252008-04
1 42967U 24564HY  26037.47803241  .00000000  00000+0  00000-0 0  9995
2 42967  85.0000  84.0000 0000000   0.0000 354.0000 15.48880291    14
CTC1_L_00252009-01
1 42968U 23069GC  26037.47803241  .00000000  00000+0  00000-0 0  9995
2 42968  85.0000  96.0000 0000000   0.0000  96.0000 15.48880291    11
CTC1_L_00252009-02
1 42969U 24112O   26037.47803241  .00000000  00000+0  00000-0 0  9996
2 42969  85.0000  96.0000 0000000   0.0000 186.0000 15.48880291    12
CTC1_L_00252009-03
1 42970U 24791CB  26037.47803241  .00000000  00000+0  00000-0 0  9991
2 42970  85.0000  96.0000 0000000   0.0000 276.0000 15.48880291    14
CTC1_L_00252009-04
1 42971U 25196CR  26037.47803241  .00000000  00000+0  00000-0 0  9992
2 42971  85.0000  96.0000 0000000   0.0000   6.0000 15.48880291    16
CTC1_L_00252010-01
1 42972U 22410AM  26037.47803241  .00000000  00000+0  00000-0 0  9999
2 42972  85.0000 108.0000 0000000   0.0000 108.0000 15.48880291    14
CTC1_L_00252010-02
1 42973U 23432GW  26037.47803241  .00000000  00000+0  00000-0 0  9995
2 42973  85.0000 108.0000 0000000   0.0000 198.0000 15.48880291    14
CTC1_L_00252010-03
1 42974U 22420PJ  26037.47803241  .00000000  00000+0  00000-0 0  9992
2 42974  85.0000 108.0000 0000000   0.0000 288.0000 15.48880291    15
CTC1_L_00252010-04
1 42975U 22254JH  26037.47803241  .00000000  00000+0  00000-0 0  9998
2 42975  85.0000 108.0000 0000000   0.0000  18.0000 15.48880291    17
CTC1_L_00252011-01
1 42976U 22690DR  26037.47803241  .00000000  00000+0  00000-0 0  9993
2 42976  85.0000 120.0000 0000000   0.0000 120.0000 15.48880291    16
CTC1_L_00252011-02
1 42977U 23996SS  26037.47803241  .00000000  00000+0  00000-0 0  9994
2 42977  85.0000 120.0000 0000000   0.0000 210.0000 15.48880291    17
CTC1_L_00252011-03
1 42978U 24420RY  26037.47803241  .00000000  00000+0  00000-0 0  9998
2 42978  85.0000 120.0000 0000000   0.0000 300.0000 15.48880291    18
CTC1_L_00252011-04
1 42979U 22881IW  26037.47803241  .00000000  00000+0  00000-0 0  9998
2 42979  85.0000 120.0000 0000000   0.0000  30.0000 15.48880291    19
CTC1_L_00252012-01
1 42980U 26709NO  26037.47803241  .00000000  00000+0  00000-0 0  9993
2 42980  85.0000 132.0000 0000000   0.0000 132.0000 15.48880291    17
CTC1_L_00252012-02
1 42981U 22498QV  26037.47803241  .00000000  00000+0  00000-0 0  9995
2 42981  85.0000 132.0000 0000000   0.0000 222.0000 15.48880291    18
CTC1_L_00252012-03
1 42982U 26605QB  26037.47803241  .00000000  00000+0  00000-0 0  9990
2 42982  85.0000 132.0000 0000000   0.0000 312.0000 15.48880291    19
CTC1_L_00252012-04
1 42983U 24513XD  26037.47803241  .00000000  00000+0  00000-0 0  9997
2 42983  85.0000 132.0000 0000000   0.0000  42.0000 15.48880291    10
CTC1_L_00252013-01
1 42984U 22484CP  26037.47803241  .00000000  00000+0  00000-0 0  9993
2 42984  85.0000 144.0000 0000000   0.0000 144.0000 15.48880291    17
CTC1_L_00252013-02
1 42985U 22458IX  26037.47803241  .00000000  00000+0  00000-0 0  9995
2 42985  85.0000 144.0000 0000000   0.0000 234.0000 15.48880291    18
CTC1_L_00252013-03
1 42986U 23722CY  26037.47803241  .00000000  00000+0  00000-0 0  9991
2 42986  85.0000 144.0000 0000000   0.0000 324.0000 15.48880291    19
CTC1_L_00252013-04
1 42987U 23333HT  26037.47803241  .00000000  00000+0  00000-0 0  9990
2 42987  85.0000 144.0000 0000000   0.0000  54.0000 15.48880291    10
CTC1_L_00252014-01
1 42988U 24362R   26037.47803241  .00000000  00000+0  00000-0 0  9994
2 42988  85.0000 156.0000 0000000   0.0000 156.0000 15.48880291    17
CTC1_L_00252014-02
1 42989U 22526OL  26037.47803241  .00000000  00000+0  00000-0 0  9995
2 42989  85.0000 156.0000 0000000   0.0000 246.0000 15.48880291    18
CTC1_L_00252014-03
1 42990U 24880MD  26037.47803241  .00000000  00000+0  00000-0 0  9992
2 42990  85.0000 156.0000 0000000   0.0000 336.0000 15.48880291    10
CTC1_L_00252014-04
1 42991U 26607BI  26037.47803241  .00000000  00000+0  00000-0 0  9992
2 42991  85.0000 156.0000 0000000   0.0000  66.0000 15.48880291    11
CTC1_L_00252015-01
1 42992U 26459YV  26037.47803241  .00000000  00000+0  00000-0 0  9998
2 42992  85.0000 168.0000 0000000   0.0000 168.0000 15.48880291    18
CTC1_L_00252015-02
1 42993U 24160FU  26037.47803241  .00000000  00000+0  00000-0 0  9996
2 42993  85.0000 168.0000 0000000   0.0000 258.0000 15.48880291    19
CTC1_L_00252015-03
1 42994U 25701GC  26037.47803241  .00000000  00000+0  00000-0 0  9999
2 42994  85.0000 168.0000 0000000   0.0000 348.0000 15.48880291    10
CTC1_L_00252015-04
1 42995U 23132IA  26037.47803241  .00000000  00000+0  00000-0 0  9996
2 42995  85.0000 168.0000 0000000   0.0000  78.0000 15.48880291    11
CTC1_L_00252016-01
1 42996U 26459FV  26037.47803241  .00000000  00000+0  00000-0 0  9992
2 42996  85.0000 180.0000 0000000   0.0000 180.0000 15.48880291    10
CTC1_L_00252016-02
1 42997U 24533WR  26037.47803241  .00000000  00000+0  00000-0 0  9994
2 42997  85.0000 180.0000 0000000   0.0000 270.0000 15.48880291    11
